{
    "links": {
        "self": "http://www.neowsapp.com/rest/v1/neo/3070712?api_key=iIulBulltgU6a56xZRHN4H3l9WmuAYTsLGpBGhQ2"
    },
    "id": "3070712",
    "neo_reference_id": "3070712",
    "name": "(2000 WT28)",
    "designation": "2000 WT28",
    "nasa_jpl_url": "http://ssd.jpl.nasa.gov/sbdb.cgi?sstr=3070712",
    "absolute_magnitude_h": 24.5,
    "estimated_diameter": {
        "kilometers": {
            "estimated_diameter_min": 0.0334622374,
            "estimated_diameter_max": 0.0748238376
        },
        "meters": {
            "estimated_diameter_min": 33.4622374455,
            "estimated_diameter_max": 74.8238376074
        },
        "miles": {
            "estimated_diameter_min": 0.0207924639,
            "estimated_diameter_max": 0.0464933628
        },
        "feet": {
            "estimated_diameter_min": 109.7842471007,
            "estimated_diameter_max": 245.4850393757
        }
    },
    "is_potentially_hazardous_asteroid": false,
    "close_approach_data": [
        {
            "close_approach_date": "1996-09-27",
            "close_approach_date_full": "1996-Sep-27 13:33",
            "epoch_date_close_approach": 843831180000,
            "relative_velocity": {
                "kilometers_per_second": "23.0802544122",
                "kilometers_per_hour": "83088.9158839063",
                "miles_per_hour": "51628.2210946417"
            },
            "miss_distance": {
                "astronomical": "0.4977086578",
                "lunar": "193.6086678842",
                "kilometers": "74456155.087438886",
                "miles": "46264909.4389771868"
            },
            "orbiting_body": "Earth"
        },
        {
            "close_approach_date": "2000-11-16",
            "close_approach_date_full": "2000-Nov-16 23:14",
            "epoch_date_close_approach": 974416440000,
            "relative_velocity": {
                "kilometers_per_second": "8.5026466031",
                "kilometers_per_hour": "30609.5277710577",
                "miles_per_hour": "19019.5701864108"
            },
            "miss_distance": {
                "astronomical": "0.0215047714",
                "lunar": "8.3653560746",
                "kilometers": "3217067.996276918",
                "miles": "1998993.3583327484"
            },
            "orbiting_body": "Earth"
        },
        {
            "close_approach_date": "2005-01-20",
            "close_approach_date_full": "2005-Jan-20 15:36",
            "epoch_date_close_approach": 1106235360000,
            "relative_velocity": {
                "kilometers_per_second": "21.1194184061",
                "kilometers_per_hour": "76029.9062620273",
                "miles_per_hour": "47242.0270326469"
            },
            "miss_distance": {
                "astronomical": "0.4405900026",
                "lunar": "171.3895110114",
                "kilometers": "65911325.932254462",
                "miles": "40955398.8072250956"
            },
            "orbiting_body": "Earth"
        }
    ],
    "orbital_data": {
        "orbit_id": "11",
        "orbit_determination_date": "2017-04-06 09:16:41",
        "first_observation_date": "2000-11-20",
        "last_observation_date": "2001-01-24",
        "data_arc_in_days": 65,
        "observations_used": 12,
        "orbit_uncertainty": "7",
        "minimum_orbit_intersection": ".0354901",
        "jupiter_tisserand_invariant": "3.144",
        "epoch_osculation": "2459000.5",
        "eccentricity": ".604892735980378",
        "semi_major_axis": "2.561624860104469",
        "inclination": "5.500995369893325",
        "ascending_node_longitude": "46.32446552866895",
        "orbital_period": "1497.51686080676",
        "perihelion_distance": "1.012116589920524",
        "perihelion_argument": "21.09405398011814",
        "aphelion_distance": "4.111133130288414",
        "perihelion_time": "2459341.747848043944",
        "mean_anomaly": "277.9647131120535",
        "mean_motion": ".2403979610660654",
        "equinox": "J2000",
        "orbit_class": {
            "orbit_class_type": "APO",
            "orbit_class_description": "Near-Earth asteroid orbits which cross the Earth’s orbit similar to that of 1862 Apollo",
            "orbit_class_range": "a (semi-major axis) > 1.0 AU; q (perihelion) < 1.017 AU"
        }
    },
    "is_sentry_object": false
}